[{"OBJECT_NAME":"STARLINK-4280","OBJECT_ID":"2022-083AY","EPOCH":"2026-03-09T22:44:59.176896","MEAN_MOTION":15.088384,"ECCENTRICITY":0.00012965,"INCLINATION":53.218,"RA_OF_ASC_NODE":162.9621,"ARG_OF_PERICENTER":94.9137,"MEAN_ANOMALY":265.2003,"EPHEMERIS_TYPE":0,"CLASSIFICATION_TYPE":"U","NORAD_CAT_ID":53178,"ELEMENT_SET_NO":999,"REV_AT_EPOCH":20138,"BSTAR":2.4923659e-5,"MEAN_MOTION_DOT":1.09e-6,"MEAN_MOTION_DDOT":0},{"OBJECT_NAME":"CZ-4B DEB","OBJECT_ID":"2004-035K","EPOCH":"2026-03-08T06:51:30.377664","MEAN_MOTION":15.09293825,"ECCENTRICITY":0.00031468,"INCLINATION":97.5843,"RA_OF_ASC_NODE":91.2716,"ARG_OF_PERICENTER":107.6302,"MEAN_ANOMALY":252.527,"EPHEMERIS_TYPE":0,"CLASSIFICATION_TYPE":"U","NORAD_CAT_ID":29043,"ELEMENT_SET_NO":999,"REV_AT_EPOCH":10418,"BSTAR":0.00031897975,"MEAN_MOTION_DOT":5.021e-5,"MEAN_MOTION_DDOT":0}]
